{
  "type": "FeatureCollection",
  "features": [
    {
      "type": "Feature",
      "properties": {
        "norad_id": 34079,
        "name": "IRIDIUM 33 DEB",
        "group": "iridium-33-debris",
        "lat": -7.4962870221171425,
        "lon": -174.13744153474,
        "alt_km": 624.7834681001959,
        "timestamp": "2025-12-19T22:41:52.780628+00:00",
        "meta_object_name": "IRIDIUM 33 DEB",
        "meta_object_id": "1997-051CN",
        "meta_epoch": "2025-12-19T07:23:13.665120",
        "meta_mean_motion": 14.83686948,
        "meta_eccentricity": 0.0004814,
        "meta_inclination": 86.3768,
        "meta_ra_of_asc_node": 5.675,
        "meta_arg_of_pericenter": 345.2663,
        "meta_mean_anomaly": 36.9038,
        "meta_ephemeris_type": 0,
        "meta_classification_type": "U",
        "meta_norad_cat_id": 34079,
        "meta_element_set_no": 999,
        "meta_rev_at_epoch": 89075,
        "meta_bstar": 0.0011698,
        "meta_mean_motion_dot": 9.693e-05,
        "meta_mean_motion_ddot": 0,
        "tle_line1": "1 34079U 97051CN  25353.30779705  .00009693  00000+0  11698-2 0  9994",
        "tle_line2": "2 34079  86.3768   5.6750 0004814 345.2663  36.9038 14.83686948890757"
      },
      "geometry": {
        "type": "Point",
        "coordinates": [
          -174.13744153474,
          -7.4962870221171425
        ]
      }
    },
    {
      "type": "Feature",
      "properties": {
        "norad_id": 34088,
        "name": "IRIDIUM 33 DEB",
        "group": "iridium-33-debris",
        "lat": 55.63184170376431,
        "lon": -157.89232463025849,
        "alt_km": 583.5859976006268,
        "timestamp": "2025-12-19T22:41:52.780639+00:00",
        "meta_object_name": "IRIDIUM 33 DEB",
        "meta_object_id": "1997-051CX",
        "meta_epoch": "2025-12-19T03:03:48.145248",
        "meta_mean_motion": 14.91662643,
        "meta_eccentricity": 0.00063639,
        "meta_inclination": 86.3843,
        "meta_ra_of_asc_node": 27.7888,
        "meta_arg_of_pericenter": 156.0805,
        "meta_mean_anomaly": 257.7392,
        "meta_ephemeris_type": 0,
        "meta_classification_type": "U",
        "meta_norad_cat_id": 34088,
        "meta_element_set_no": 999,
        "meta_rev_at_epoch": 88837,
        "meta_bstar": 0.00181826,
        "meta_mean_motion_dot": 0.00018329,
        "meta_mean_motion_ddot": 0,
        "tle_line1": "1 34088U 97051CX  25353.12764057  .00018329  00000+0  18183-2 0  9990",
        "tle_line2": "2 34088  86.3843  27.7888 0006363 156.0805 257.7392 14.91662643888371"
      },
      "geometry": {
        "type": "Point",
        "coordinates": [
          -157.89232463025849,
          55.63184170376431
        ]
      }
    },
    {
      "type": "Feature",
      "properties": {
        "norad_id": 34091,
        "name": "IRIDIUM 33 DEB",
        "group": "iridium-33-debris",
        "lat": 64.63058039723049,
        "lon": 71.28772818963652,
        "alt_km": 637.7396457629638,
        "timestamp": "2025-12-19T22:41:52.780650+00:00",
        "meta_object_name": "IRIDIUM 33 DEB",
        "meta_object_id": "1997-051DA",
        "meta_epoch": "2025-12-19T11:03:50.582304",
        "meta_mean_motion": 14.82288933,
        "meta_eccentricity": 0.0033847,
        "meta_inclination": 86.3415,
        "meta_ra_of_asc_node": 63.7551,
        "meta_arg_of_pericenter": 268.9231,
        "meta_mean_anomaly": 90.8113,
        "meta_ephemeris_type": 0,
        "meta_classification_type": "U",
        "meta_norad_cat_id": 34091,
        "meta_element_set_no": 999,
        "meta_rev_at_epoch": 87966,
        "meta_bstar": 0.0030946,
        "meta_mean_motion_dot": 0.00025048,
        "meta_mean_motion_ddot": 0,
        "tle_line1": "1 34091U 97051DA  25353.46100211  .00025048  00000+0  30946-2 0  9994",
        "tle_line2": "2 34091  86.3415  63.7551 0033847 268.9231  90.8113 14.82288933879665"
      },
      "geometry": {
        "type": "Point",
        "coordinates": [
          71.28772818963652,
          64.63058039723049
        ]
      }
    },
    {
      "type": "Feature",
      "properties": {
        "norad_id": 34097,
        "name": "IRIDIUM 33 DEB",
        "group": "iridium-33-debris",
        "lat": 11.931073462550101,
        "lon": 177.42271826081455,
        "alt_km": 834.8202268030409,
        "timestamp": "2025-12-19T22:41:52.780660+00:00",
        "meta_object_name": "IRIDIUM 33 DEB",
        "meta_object_id": "1997-051DG",
        "meta_epoch": "2025-12-19T00:09:26.087616",
        "meta_mean_motion": 14.34825402,
        "meta_eccentricity": 0.00819041,
        "meta_inclination": 86.2,
        "meta_ra_of_asc_node": 358.6418,
        "meta_arg_of_pericenter": 341.7144,
        "meta_mean_anomaly": 18.111,
        "meta_ephemeris_type": 0,
        "meta_classification_type": "U",
        "meta_norad_cat_id": 34097,
        "meta_element_set_no": 999,
        "meta_rev_at_epoch": 87209,
        "meta_bstar": 0.0011301988,
        "meta_mean_motion_dot": 3.348e-05,
        "meta_mean_motion_ddot": 0,
        "tle_line1": "1 34097U 97051DG  25353.00655194  .00003348  00000+0  11302-2 0  9999",
        "tle_line2": "2 34097  86.2000 358.6418 0081904 341.7144  18.1110 14.34825402872093"
      },
      "geometry": {
        "type": "Point",
        "coordinates": [
          177.42271826081455,
          11.931073462550101
        ]
      }
    },
    {
      "type": "Feature",
      "properties": {
        "norad_id": 34145,
        "name": "IRIDIUM 33 DEB",
        "group": "iridium-33-debris",
        "lat": -85.8801355060531,
        "lon": -97.60478871070366,
        "alt_km": 795.3493258726521,
        "timestamp": "2025-12-19T22:41:52.780670+00:00",
        "meta_object_name": "IRIDIUM 33 DEB",
        "meta_object_id": "1997-051DY",
        "meta_epoch": "2025-12-18T08:48:48.486240",
        "meta_mean_motion": 14.42328092,
        "meta_eccentricity": 0.00557365,
        "meta_inclination": 86.2113,
        "meta_ra_of_asc_node": 330.0199,
        "meta_arg_of_pericenter": 75.968,
        "meta_mean_anomaly": 284.7708,
        "meta_ephemeris_type": 0,
        "meta_classification_type": "U",
        "meta_norad_cat_id": 34145,
        "meta_element_set_no": 999,
        "meta_rev_at_epoch": 87719,
        "meta_bstar": 0.00092678493,
        "meta_mean_motion_dot": 3.137e-05,
        "meta_mean_motion_ddot": 0,
        "tle_line1": "1 34145U 97051DY  25352.36722785  .00003137  00000+0  92678-3 0  9994",
        "tle_line2": "2 34145  86.2113 330.0199 0055736  75.9680 284.7708 14.42328092877199"
      },
      "geometry": {
        "type": "Point",
        "coordinates": [
          -97.60478871070366,
          -85.8801355060531
        ]
      }
    },
    {
      "type": "Feature",
      "properties": {
        "norad_id": 34146,
        "name": "IRIDIUM 33 DEB",
        "group": "iridium-33-debris",
        "lat": 83.16910799238019,
        "lon": 19.48426588744144,
        "alt_km": 728.2079113208501,
        "timestamp": "2025-12-19T22:41:52.780681+00:00",
        "meta_object_name": "IRIDIUM 33 DEB",
        "meta_object_id": "1997-051DZ",
        "meta_epoch": "2025-12-19T11:24:45.977760",
        "meta_mean_motion": 14.49090588,
        "meta_eccentricity": 0.0026145,
        "meta_inclination": 86.2829,
        "meta_ra_of_asc_node": 346.8246,
        "meta_arg_of_pericenter": 198.122,
        "meta_mean_anomaly": 315.0041,
        "meta_ephemeris_type": 0,
        "meta_classification_type": "U",
        "meta_norad_cat_id": 34146,
        "meta_element_set_no": 999,
        "meta_rev_at_epoch": 88204,
        "meta_bstar": 0.0006219,
        "meta_mean_motion_dot": 2.392e-05,
        "meta_mean_motion_ddot": 0,
        "tle_line1": "1 34146U 97051DZ  25353.47553215  .00002392  00000+0  62190-3 0  9996",
        "tle_line2": "2 34146  86.2829 346.8246 0026145 198.1220 315.0041 14.49090588882043"
      },
      "geometry": {
        "type": "Point",
        "coordinates": [
          19.48426588744144,
          83.16910799238019
        ]
      }
    },
    {
      "type": "Feature",
      "properties": {
        "norad_id": 34159,
        "name": "IRIDIUM 33 DEB",
        "group": "iridium-33-debris",
        "lat": -65.27595175932717,
        "lon": -126.86311547268525,
        "alt_km": 752.9771785894845,
        "timestamp": "2025-12-19T22:41:52.780692+00:00",
        "meta_object_name": "IRIDIUM 33 DEB",
        "meta_object_id": "1997-051EN",
        "meta_epoch": "2025-12-19T09:52:20.074080",
        "meta_mean_motion": 14.38508991,
        "meta_eccentricity": 0.0026,
        "meta_inclination": 86.3502,
        "meta_ra_of_asc_node": 45.3967,
        "meta_arg_of_pericenter": 264.238,
        "meta_mean_anomaly": 95.5854,
        "meta_ephemeris_type": 0,
        "meta_classification_type": "U",
        "meta_norad_cat_id": 34159,
        "meta_element_set_no": 999,
        "meta_rev_at_epoch": 88055,
        "meta_bstar": 0.00027729,
        "meta_mean_motion_dot": 8.69e-06,
        "meta_mean_motion_ddot": 0,
        "tle_line1": "1 34159U 97051EN  25353.41134345  .00000869  00000+0  27729-3 0  9999",
        "tle_line2": "2 34159  86.3502  45.3967 0026000 264.2380  95.5854 14.38508991880555"
      },
      "geometry": {
        "type": "Point",
        "coordinates": [
          -126.86311547268525,
          -65.27595175932717
        ]
      }
    }
  ]
}